E-SPACE_L_00006004-263
1 11342U 25992KQ  26075.69997685  .00000000  00000+0  00000-0 0  9996
2 11342  36.0000  30.0000 0000000   0.0000 262.3333 15.03439488    13
E-SPACE_L_00006004-264
1 11343U 25658FJ  26075.69997685  .00000000  00000+0  00000-0 0  9996
2 11343  36.0000  30.0000 0000000   0.0000 263.3333 15.03439488    15
E-SPACE_L_00006004-265
1 11344U 23996VF  26075.69997685  .00000000  00000+0  00000-0 0  9990
2 11344  36.0000  30.0000 0000000   0.0000 264.3333 15.03439488    17
E-SPACE_L_00006004-266
1 11345U 26555QB  26075.69997685  .00000000  00000+0  00000-0 0  9995
2 11345  36.0000  30.0000 0000000   0.0000 265.3333 15.03439488    19
E-SPACE_L_00006004-267
1 11346U 25756CS  26075.69997685  .00000000  00000+0  00000-0 0  9998
2 11346  36.0000  30.0000 0000000   0.0000 266.3333 15.03439488    11
E-SPACE_L_00006004-268
1 11347U 22337XT  26075.69997685  .00000000  00000+0  00000-0 0  9991
2 11347  36.0000  30.0000 0000000   0.0000 267.3333 15.03439488    13
E-SPACE_L_00006004-269
1 11348U 26546UP  26075.69997685  .00000000  00000+0  00000-0 0  9998
2 11348  36.0000  30.0000 0000000   0.0000 268.3333 15.03439488    15
E-SPACE_L_00006004-270
1 11349U 24461YI  26075.69997685  .00000000  00000+0  00000-0 0  9993
2 11349  36.0000  30.0000 0000000   0.0000 269.3333 15.03439488    17
E-SPACE_L_00006004-271
1 11350U 26379FK  26075.69997685  .00000000  00000+0  00000-0 0  9995
2 11350  36.0000  30.0000 0000000   0.0000 270.3333 15.03439488    11
E-SPACE_L_00006004-272
1 11351U 23660BU  26075.69997685  .00000000  00000+0  00000-0 0  9996
2 11351  36.0000  30.0000 0000000   0.0000 271.3333 15.03439488    13
E-SPACE_L_00006004-273
1 11352U 23712W   26075.69997685  .00000000  00000+0  00000-0 0  9995
2 11352  36.0000  30.0000 0000000   0.0000 272.3333 15.03439488    15
E-SPACE_L_00006004-274
1 11353U 24241DT  26075.69997685  .00000000  00000+0  00000-0 0  9994
2 11353  36.0000  30.0000 0000000   0.0000 273.3333 15.03439488    17
E-SPACE_L_00006004-275
1 11354U 25803RT  26075.69997685  .00000000  00000+0  00000-0 0  9990
2 11354  36.0000  30.0000 0000000   0.0000 274.3333 15.03439488    19
E-SPACE_L_00006004-276
1 11355U 24562C   26075.69997685  .00000000  00000+0  00000-0 0  9992
2 11355  36.0000  30.0000 0000000   0.0000 275.3333 15.03439488    11
E-SPACE_L_00006004-277
1 11356U 22123I   26075.69997685  .00000000  00000+0  00000-0 0  9994
2 11356  36.0000  30.0000 0000000   0.0000 276.3333 15.03439488    13
E-SPACE_L_00006004-278
1 11357U 26434FV  26075.69997685  .00000000  00000+0  00000-0 0  9994
2 11357  36.0000  30.0000 0000000   0.0000 277.3333 15.03439488    15
E-SPACE_L_00006004-279
1 11358U 24518GW  26075.69997685  .00000000  00000+0  00000-0 0  9996
2 11358  36.0000  30.0000 0000000   0.0000 278.3333 15.03439488    17
E-SPACE_L_00006004-280
1 11359U 22571RB  26075.69997685  .00000000  00000+0  00000-0 0  9994
2 11359  36.0000  30.0000 0000000   0.0000 279.3333 15.03439488    19
E-SPACE_L_00006004-281
1 11360U 22339ZJ  26075.69997685  .00000000  00000+0  00000-0 0  9998
2 11360  36.0000  30.0000 0000000   0.0000 280.3333 15.03439488    13
E-SPACE_L_00006004-282
1 11361U 23078EU  26075.69997685  .00000000  00000+0  00000-0 0  9990
2 11361  36.0000  30.0000 0000000   0.0000 281.3333 15.03439488    15
E-SPACE_L_00006004-283
1 11362U 23211B   26075.69997685  .00000000  00000+0  00000-0 0  9990
2 11362  36.0000  30.0000 0000000   0.0000 282.3333 15.03439488    17
E-SPACE_L_00006004-284
1 11363U 26398HJ  26075.69997685  .00000000  00000+0  00000-0 0  9990
2 11363  36.0000  30.0000 0000000   0.0000 283.3333 15.03439488    19
E-SPACE_L_00006004-285
1 11364U 24236LK  26075.69997685  .00000000  00000+0  00000-0 0  9990
2 11364  36.0000  30.0000 0000000   0.0000 284.3333 15.03439488    11
E-SPACE_L_00006004-286
1 11365U 22579BS  26075.69997685  .00000000  00000+0  00000-0 0  9999
2 11365  36.0000  30.0000 0000000   0.0000 285.3333 15.03439488    13
E-SPACE_L_00006004-287
1 11366U 25171NK  26075.69997685  .00000000  00000+0  00000-0 0  9991
2 11366  36.0000  30.0000 0000000   0.0000 286.3333 15.03439488    15
E-SPACE_L_00006004-288
1 11367U 24833VM  26075.69997685  .00000000  00000+0  00000-0 0  9996
2 11367  36.0000  30.0000 0000000   0.0000 287.3333 15.03439488    17
E-SPACE_L_00006004-289
1 11368U 25276TV  26075.69997685  .00000000  00000+0  00000-0 0  9999
2 11368  36.0000  30.0000 0000000   0.0000 288.3333 15.03439488    19
E-SPACE_L_00006004-290
1 11369U 24226GJ  26075.69997685  .00000000  00000+0  00000-0 0  9994
2 11369  36.0000  30.0000 0000000   0.0000 289.3333 15.03439488    11
E-SPACE_L_00006004-291
1 11370U 26967YA  26075.69997685  .00000000  00000+0  00000-0 0  9990
2 11370  36.0000  30.0000 0000000   0.0000 290.3333 15.03439488    15
E-SPACE_L_00006004-292
1 11371U 24862TI  26075.69997685  .00000000  00000+0  00000-0 0  9993
2 11371  36.0000  30.0000 0000000   0.0000 291.3333 15.03439488    17
E-SPACE_L_00006004-293
1 11372U 23429BX  26075.69997685  .00000000  00000+0  00000-0 0  9992
2 11372  36.0000  30.0000 0000000   0.0000 292.3333 15.03439488    19
E-SPACE_L_00006004-294
1 11373U 24268OR  26075.69997685  .00000000  00000+0  00000-0 0  9995
2 11373  36.0000  30.0000 0000000   0.0000 293.3333 15.03439488    11
E-SPACE_L_00006004-295
1 11374U 22880EO  26075.69997685  .00000000  00000+0  00000-0 0  9994
2 11374  36.0000  30.0000 0000000   0.0000 294.3333 15.03439488    13
E-SPACE_L_00006004-296
1 11375U 26176HY  26075.69997685  .00000000  00000+0  00000-0 0  9997
2 11375  36.0000  30.0000 0000000   0.0000 295.3333 15.03439488    15
E-SPACE_L_00006004-297
1 11376U 24921JW  26075.69997685  .00000000  00000+0  00000-0 0  9994
2 11376  36.0000  30.0000 0000000   0.0000 296.3333 15.03439488    17
E-SPACE_L_00006004-298
1 11377U 24514JQ  26075.69997685  .00000000  00000+0  00000-0 0  9993
2 11377  36.0000  30.0000 0000000   0.0000 297.3333 15.03439488    19
E-SPACE_L_00006004-299
1 11378U 22498WI  26075.69997685  .00000000  00000+0  00000-0 0  9993
2 11378  36.0000  30.0000 0000000   0.0000 298.3333 15.03439488    11
E-SPACE_L_00006004-300
1 11379U 22811P   26075.69997685  .00000000  00000+0  00000-0 0  9993
2 11379  36.0000  30.0000 0000000   0.0000 299.3333 15.03439488    13
E-SPACE_L_00006004-301
1 11380U 24889HJ  26075.69997685  .00000000  00000+0  00000-0 0  9992
2 11380  36.0000  30.0000 0000000   0.0000 300.3333 15.03439488    18
E-SPACE_L_00006004-302
1 11381U 24177GV  26075.69997685  .00000000  00000+0  00000-0 0  9993
2 11381  36.0000  30.0000 0000000   0.0000 301.3333 15.03439488    10
E-SPACE_L_00006004-303
1 11382U 24725RY  26075.69997685  .00000000  00000+0  00000-0 0  9993
2 11382  36.0000  30.0000 0000000   0.0000 302.3333 15.03439488    12
E-SPACE_L_00006004-304
1 11383U 26999HL  26075.69997685  .00000000  00000+0  00000-0 0  9999
2 11383  36.0000  30.0000 0000000   0.0000 303.3333 15.03439488    14
E-SPACE_L_00006004-305
1 11384U 25210SR  26075.69997685  .00000000  00000+0  00000-0 0  9995
2 11384  36.0000  30.0000 0000000   0.0000 304.3333 15.03439488    16
E-SPACE_L_00006004-306
1 11385U 25055QG  26075.69997685  .00000000  00000+0  00000-0 0  9993
2 11385  36.0000  30.0000 0000000   0.0000 305.3333 15.03439488    18
E-SPACE_L_00006004-307
1 11386U 25549ZF  26075.69997685  .00000000  00000+0  00000-0 0  9992
2 11386  36.0000  30.0000 0000000   0.0000 306.3333 15.03439488    10
E-SPACE_L_00006004-308
1 11387U 22937YP  26075.69997685  .00000000  00000+0  00000-0 0  9991
2 11387  36.0000  30.0000 0000000   0.0000 307.3333 15.03439488    12
E-SPACE_L_00006004-309
1 11388U 22409OG  26075.69997685  .00000000  00000+0  00000-0 0  9996
2 11388  36.0000  30.0000 0000000   0.0000 308.3333 15.03439488    14
E-SPACE_L_00006004-310
1 11389U 25222HA  26075.69997685  .00000000  00000+0  00000-0 0  9993
2 11389  36.0000  30.0000 0000000   0.0000 309.3333 15.03439488    16
E-SPACE_L_00006004-311
1 11390U 23835AX  26075.69997685  .00000000  00000+0  00000-0 0  9993
2 11390  36.0000  30.0000 0000000   0.0000 310.3333 15.03439488    10
E-SPACE_L_00006004-312
1 11391U 24808EJ  26075.69997685  .00000000  00000+0  00000-0 0  9995
2 11391  36.0000  30.0000 0000000   0.0000 311.3333 15.03439488    12
E-SPACE_L_00006004-313
1 11392U 22892EX  26075.69997685  .00000000  00000+0  00000-0 0  9997
2 11392  36.0000  30.0000 0000000   0.0000 312.3333 15.03439488    14
E-SPACE_L_00006004-314
1 11393U 26609BB  26075.69997685  .00000000  00000+0  00000-0 0  9998
2 11393  36.0000  30.0000 0000000   0.0000 313.3333 15.03439488    16
E-SPACE_L_00006004-315
1 11394U 25872XK  26075.69997685  .00000000  00000+0  00000-0 0  9990
2 11394  36.0000  30.0000 0000000   0.0000 314.3333 15.03439488    18
E-SPACE_L_00006004-316
1 11395U 25984KL  26075.69997685  .00000000  00000+0  00000-0 0  9995
2 11395  36.0000  30.0000 0000000   0.0000 315.3333 15.03439488    10
E-SPACE_L_00006004-317
1 11396U 26121WY  26075.69997685  .00000000  00000+0  00000-0 0  9990
2 11396  36.0000  30.0000 0000000   0.0000 316.3333 15.03439488    12
E-SPACE_L_00006004-318
1 11397U 26692UY  26075.69997685  .00000000  00000+0  00000-0 0  9994
2 11397  36.0000  30.0000 0000000   0.0000 317.3333 15.03439488    14
E-SPACE_L_00006004-319
1 11398U 25701TF  26075.69997685  .00000000  00000+0  00000-0 0  9995
2 11398  36.0000  30.0000 0000000   0.0000 318.3333 15.03439488    16
E-SPACE_L_00006004-320
1 11399U 25901TL  26075.69997685  .00000000  00000+0  00000-0 0  9998
2 11399  36.0000  30.0000 0000000   0.0000 319.3333 15.03439488    18
E-SPACE_L_00006004-321
1 11400U 23100OH  26075.69997685  .00000000  00000+0  00000-0 0  9990
2 11400  36.0000  30.0000 0000000   0.0000 320.3333 15.03439488    13
E-SPACE_L_00006004-322
1 11401U 26568CE  26075.69997685  .00000000  00000+0  00000-0 0  9992
2 11401  36.0000  30.0000 0000000   0.0000 321.3333 15.03439488    15
E-SPACE_L_00006004-323
1 11402U 26345YQ  26075.69997685  .00000000  00000+0  00000-0 0  9996
2 11402  36.0000  30.0000 0000000   0.0000 322.3333 15.03439488    17
